ASTERIA                 
1 43020U 98067NH  18282.77560648  .00019493  00000-0  22508-3 0  9999
2 43020  51.6410 157.6804 0002044 222.8843 137.1991 15.61916184 50387
DELLINGR (RBLE)         
1 43021U 98067NJ  18282.79913938  .00010606  00000-0  13975-3 0  9991
2 43021  51.6391 160.7895 0001996 211.3527 148.7347 15.59028066 50347
OSIRIS-3U               
1 43027U 98067NL  18282.77095362  .00060439  00000-0  45579-3 0  9991
2 43027  51.6342 147.7779 0003397 197.9485 162.1394 15.71889133 50395
AEROCUBE 7B             
1 43042U 17071F   18282.78136983  .00005607  00000-0  15027-3 0  9991
2 43042  51.6387 202.9741 0004547 329.4019  30.6699 15.39546717 47257
AEROCUBE 7C             
1 43043U 17071G   18282.78131652  .00005674  00000-0  15193-3 0  9998
2 43043  51.6390 202.9809 0004665 330.8921  29.1802 15.39550077 47226
CHEFSAT                 
1 43044U 17071H   18282.77291121  .00008449  00000-0  21166-3 0  9996
2 43044  51.6397 201.4684 0004541 331.1488  28.9245 15.40909434 47241
ASGARDIA 1              
1 43049U 17071N   18282.16866756  .00004985  00000-0  13425-3 0  9996
2 43049  51.6393 205.6506 0002419 357.9562   2.1412 15.39658915 47122
ISARA                   
1 43050U 17071P   18282.20576342  .00008512  00000-0  21508-3 0  9993
2 43050  51.6387 204.4176 0002223 357.2483   2.8489 15.40638350 47141
FAUNA                   
1 43052U 17071R   18282.21090449  .00005262  00000-0  14036-3 0  9992
2 43052  51.6393 205.1945 0002255 354.9676   5.1285 15.39829056 47137
CORVUS BC3              
1 43118U 18004H   18281.72421972  .00001064  00000-0  49050-4 0  9997
2 43118  97.5215 344.4740 0012018  62.6446 297.6012 15.22428829 40985
MICROMAS-2A             
1 43131U 18004W   18282.75260103  .00002735  00000-0  11858-3 0  9993
2 43131  97.5227 345.7383 0011100  62.8660 297.3707 15.23192005 41154
GOMX4-B                 
1 43196U 18015E   18282.80692096  .00000469  00000-0  22321-4 0  9992
2 43196  97.3605  49.4916 0020221 112.3883 247.9508 15.23764848 37981
GOMX4-A                 
1 43197U 18015F   18282.89012309  .00000477  00000-0  22634-4 0  9991
2 43197  97.3617  49.5776 0021034 112.7676   6.0573 15.23784051 38005
1KUNS-PF                
1 43466U 98067NP  18282.82093975  .00018427  00000-0  24600-3 0  9994
2 43466  51.6390 164.6747 0001191 139.0617 221.0465 15.58128823 23551
UBAKUSAT                
1 43467U 98067NQ  18282.71937586  .00012772  00000-0  17731-3 0  9992
2 43467  51.6391 165.4998 0002829 179.7843 180.3151 15.57407116 23543
BATSU-CS1 (IRAZU)       
1 43468U 98067NR  18282.08847799  .00026893  00000-0  34830-3 0  9997
2 43468  51.6394 168.0337 0001329 132.9343 227.1761 15.58684544123432
CUBERRT                 
1 43546U 98067NU  18282.08199150  .00026200  00000-0  37175-3 0  9992
2 43546  51.6393 170.2330 0005112 256.5797 103.4625 15.56237638 13558
TEMPEST-D               
1 43547U 98067NV  18282.80465625  .00005585  00000-0  87488-4 0  9992
2 43547  51.6389 166.8075 0005184 262.6531  97.3871 15.55400361 13349
RAINCUBE                
1 43548U 98067NW  18282.28393472  .00014009  00000-0  20491-3 0  9996
2 43548  51.6390 169.3302 0005028 267.0666  92.9750 15.55885797 13716
HALOSAT                 
1 43549U 98067NX  18282.22008699  .00015560  00000-0  22691-3 0  9992
2 43549  51.6391 169.6539 0005057 268.9264  91.1148 15.55871143 13261
ENDUROSAT ONE           
1 43551U 98067NZ  18282.13628214  .00018358  00000-0  26174-3 0  9994
2 43551  51.6388 169.8442 0005438 276.2134  83.8238 15.56345891 13665
EQUISAT                 
1 43552U 98067PA  18282.78254896  .00012887  00000-0  18709-3 0  9993
2 43552  51.6388 166.6616 0005706 279.8355  80.1992 15.56172552 13722
AEROCUBE 12A            
1 43556U 18046C   18282.18184694  .00001245  00000-0  57907-4 0  9998
2 43556  51.6417 187.1487 0007760 246.9824 113.0337 15.27884765 12947
AEROCUBE 12B            
1 43557U 18046D   18282.24776778  .00000811  00000-0  42246-4 0  9994
2 43557  51.6426 186.8383 0007852 247.0932 112.9219 15.27855686 12906
UITMSAT-1               
1 43589U 98067PD  18281.91890798  .00017593  00000-0  25703-3 0  9995
2 43589  51.6389 171.3904 0005011 286.6878  73.3563 15.55717038  9323
MAYA-1                  
1 43590U 98067PE  18282.11053523  .00017856  00000-0  26043-3 0  9997
2 43590  51.6389 170.4206 0005111 288.4341  71.6095 15.55751519  9284
BHUTAN-1                
1 43591U 98067PF  18282.68718236  .00015338  00000-0  22428-3 0  9995
2 43591  51.6389 167.5220 0005228 292.2822  67.7614 15.55808813  9377
SIRIUSSAT-1             
1 43595U 98067PG  18282.12648564  .00016562  00000-0  24577-3 0  9991
2 43595  51.6391 170.5227 0003164 226.6201 133.4527 15.55345313  8468
SIRIUSSAT-2             
1 43596U 98067PH  18282.13131224  .00016132  00000-0  24084-3 0  9999
2 43596  51.6399 170.5605 0003760 232.7457 127.3191 15.55200761  8466
TANUSHA-3               
1 43597U 98067PJ  18282.12840015  .00019743  00000-0  29113-3 0  9993
2 43597  51.6380 170.5312 0003021 244.5937 115.4741 15.55381323  8469
SURFSAT                 
1 43614U 18070B   18281.96986305  .00002443  00000-0  69116-4 0  9990
2 43614  93.0252 259.2150 0015580 190.7288 169.3634 15.36280890  3590
CP-7 (DAVE)             
1 43615U 18070C   18281.96970569  .00002407  00000-0  68092-4 0  9998
2 43615  93.0249 259.2150 0015480 190.4130 169.6803 15.36289710  3590
ELFIN-B                 
1 43616U 18070D   18282.35961570 -.00000006  00000-0  00000+0 0  9999
2 43616  93.0244 259.3592 0017171 191.8216 168.2778 15.36344582  3658
ELFIN-A                 
1 43617U 18070E   18282.35930416 -.00000006  00000-0  00000+0 0  9995
2 43617  93.0276 259.3846 0016481 187.7230 172.3967 15.36373696  3653
